NORAD_CAT_ID,OBJECT_NAME,OBJECT_TYPE,EPOCH,MEAN_MOTION,ECCENTRICITY,INCLINATION,RA_OF_ASC_NODE,ARG_OF_PERICENTER,MEAN_ANOMALY,BSTAR,MEAN_MOTION_DOT,MEAN_MOTION_DDOT,TLE_LINE0,TLE_LINE1,TLE_LINE2,SEMIMAJOR_AXIS,PERIOD,APOGEE,PERIGEE,DECAYED
55747.0,STARLINK-5539,PAYLOAD,2023-09-27 09:46:26,14.98331531,0.0002726,70.0015,339.3294,260.3696,99.7155,6.7239e-05,7.09e-06,0.0,0 STARLINK-5539,1 55747U 23028G   23270.40725483  .00000709  00000-0  67239-4 0  9997,2 55747  70.0015 339.3294 0002726 260.3696  99.7155 14.98331531 32082,6950.188,96.107,573.948,570.159,0.0
55747.0,STARLINK-5539,PAYLOAD,2023-09-27 12:58:42,14.9833292,0.0002721,70.001,338.9914,269.0881,90.9967,2.4682e-05,2.02e-06,0.0,0 STARLINK-5539,1 55747U 23028G   23270.54077536  .00000202  00000-0  24682-4 0  9994,2 55747  70.0010 338.9914 0002721 269.0881  90.9967 14.98332920 32108,6950.184,96.107,573.94,570.158,0.0
55747.0,STARLINK-5539,PAYLOAD,2023-09-28 11:24:36,14.98327344,0.0002833,70.0007,336.6353,268.993,91.0905,6.8809e-05,7.28e-06,0.0,0 STARLINK-5539,1 55747U 23028G   23271.47541923  .00000728  00000-0  68809-4 0  9995,2 55747  70.0007 336.6353 0002833 268.9930  91.0905 14.98327344 32246,6950.201,96.107,574.035,570.097,0.0
55747.0,STARLINK-5539,PAYLOAD,2023-09-28 14:36:52,14.98329324,0.0002819,70.0008,336.2985,269.177,90.9066,8.9101e-05,9.7e-06,0.0,0 STARLINK-5539,1 55747U 23028G   23271.60893769  .00000970  00000-0  89101-4 0  9995,2 55747  70.0008 336.2985 0002819 269.1770  90.9066 14.98329324 32261,6950.195,96.107,574.019,570.101,0.0
55747.0,STARLINK-5539,PAYLOAD,2023-09-29 13:02:44,14.98335638,0.0002781,70.0006,333.9415,270.1266,89.9574,0.00010696,1.184e-05,0.0,0 STARLINK-5539,1 55747U 23028G   23272.54357268  .00001184  00000-0  10696-3 0  9998,2 55747  70.0006 333.9415 0002781 270.1266  89.9574 14.98335638 32404,6950.175,96.107,573.973,570.108,0.0
55747.0,STARLINK-5539,PAYLOAD,2023-09-30 05:04:05,14.98336175,0.000277,70.0004,332.258,265.238,94.8462,0.00012994,1.458e-05,0.0,0 STARLINK-5539,1 55747U 23028G   23273.21116954  .00001458  00000-0  12994-3 0  9995,2 55747  70.0004 332.2580 0002770 265.2380  94.8462 14.98336175 32506,6950.174,96.107,573.964,570.114,0.0
55747.0,STARLINK-5539,PAYLOAD,2023-09-30 14:40:53,14.98338748,0.0002758,70.0004,331.2477,265.0627,95.0217,0.00014828,1.677e-05,0.0,0 STARLINK-5539,1 55747U 23028G   23273.61172595  .00001677  00000-0  14828-3 0  9993,2 55747  70.0004 331.2477 0002758 265.0627  95.0217 14.98338748 32563,6950.166,96.106,573.948,570.114,0.0
55747.0,STARLINK-5539,PAYLOAD,2023-10-01 09:54:30,14.98332866,0.0002715,70.0002,329.2272,264.7435,95.3414,1.6963e-06,-7.3e-07,0.0,0 STARLINK-5539,1 55747U 23028G   23274.41285071 -.00000073  00000-0  16963-5 0  9990,2 55747  70.0002 329.2272 0002715 264.7435  95.3414 14.98332866 32687,6950.184,96.107,573.936,570.162,0.0
55747.0,STARLINK-5539,PAYLOAD,2023-10-01 13:06:46,14.98321694,0.0002637,70.0003,328.8907,267.5533,92.5324,0.0002944,3.421e-05,0.0,0 STARLINK-5539,1 55747U 23028G   23274.54637226  .00003421  00000-0  29440-3 0  9998,2 55747  70.0003 328.8907 0002637 267.5533  92.5324 14.98321694 32700,6950.219,96.108,573.916,570.251,0.0
55747.0,STARLINK-5539,PAYLOAD,2023-10-01 21:07:27,14.98319124,0.0002804,70.0,328.0489,280.641,79.4433,3.8814e-05,3.7e-06,0.0,0 STARLINK-5539,1 55747U 23028G   23274.88017928  .00000370  00000-0  38814-4 0  9992,2 55747  70.0000 328.0489 0002804 280.6410  79.4433 14.98319124 32755,6950.227,96.108,574.04,570.143,0.0
55747.0,STARLINK-5539,PAYLOAD,2023-10-02 13:08:48,14.98325385,0.0002925,69.9997,326.3663,269.6733,90.4091,-9.9981e-05,-1.286e-05,0.0,0 STARLINK-5539,1 55747U 23028G   23275.54777831 -.00001286  00000-0 -99981-4 0  9993,2 55747  69.9997 326.3663 0002925 269.6733  90.4091 14.98325385 32851,6950.207,96.107,574.105,570.039,0.0
55747.0,STARLINK-5539,PAYLOAD,2023-10-03 05:10:07,14.98332656,0.000303,69.9994,324.6825,269.7825,90.2986,9.2752e-05,1.014e-05,0.0,0 STARLINK-5539,1 55747U 23028G   23276.21536953  .00001014  00000-0  92752-4 0  9992,2 55747  69.9994 324.6825 0003030 269.7825  90.2986 14.98332656 32951,6950.185,96.107,574.156,569.944,0.0
55747.0,STARLINK-5539,PAYLOAD,2023-10-03 13:10:47,14.98337814,0.0003005,69.9994,323.8411,270.173,89.9084,0.00014634,1.654e-05,0.0,0 STARLINK-5539,1 55747U 23028G   23276.54916453  .00001654  00000-0  14634-3 0  9997,2 55747  69.9994 323.8411 0003005 270.1730  89.9084 14.98337814 33008,6950.169,96.106,574.122,569.945,0.0
55747.0,STARLINK-5539,PAYLOAD,2023-10-04 10:00:33,14.98328451,0.0003043,69.9992,321.6531,270.3431,89.738,0.00011846,1.321e-05,0.0,0 STARLINK-5539,1 55747U 23028G   23277.41705159  .00001321  00000-0  11846-3 0  9996,2 55747  69.9992 321.6531 0003043 270.3431  89.7380 14.98328451 33135,6950.198,96.107,574.178,569.948,0.0
55747.0,STARLINK-5539,PAYLOAD,2023-10-04 13:12:49,14.98330813,0.0003036,69.9992,321.3165,270.509,89.5721,0.00014026,1.581e-05,0.0,0 STARLINK-5539,1 55747U 23028G   23277.55056989  .00001581  00000-0  14026-3 0  9992,2 55747  69.9992 321.3165 0003036 270.5090  89.5721 14.98330813 33154,6950.19,96.107,574.165,569.945,0.0
55747.0,STARLINK-5539,PAYLOAD,2023-10-05 02:01:55,14.98247016,0.000305,69.9998,319.9714,260.9534,99.128,0.0015374,0.0001826,0.0,0 STARLINK-5539,1 55747U 23028G   23278.08466814  .00018260  00000-0  15374-2 0  9991,2 55747  69.9998 319.9714 0003050 260.9534  99.1280 14.98247016 33233,6950.45,96.112,574.434,570.195,0.0
55747.0,STARLINK-5539,PAYLOAD,2023-10-05 10:02:34,14.98332312,0.0002723,69.9999,319.1284,270.5935,89.4912,-1.7961e-07,-9.5e-07,0.0,0 STARLINK-5539,1 55747U 23028G   23278.41845233 -.00000095  00000-0 -17961-6 0  9991,2 55747  69.9999 319.1284 0002723 270.5935  89.4912 14.98332312 33289,6950.186,96.107,573.943,570.158,0.0
55747.0,STARLINK-5539,PAYLOAD,2023-10-05 13:14:50,14.98334623,0.0002714,69.9998,318.7916,270.9772,89.1076,2.2904e-05,1.8e-06,0.0,0 STARLINK-5539,1 55747U 23028G   23278.55196988  .00000180  00000-0  22904-4 0  9996,2 55747  69.9998 318.7916 0002714 270.9772  89.1076 14.98334623 33306,6950.179,96.107,573.93,570.157,0.0
55747.0,STARLINK-5539,PAYLOAD,2023-10-05 19:39:22,14.98341348,0.0002753,70.0002,318.118,269.8712,90.2132,-0.00017537,-2.185e-05,0.0,0 STARLINK-5539,1 55747U 23028G   23278.81900967 -.00002185  00000-0 -17537-3 0  9999,2 55747  70.0002 318.1180 0002753 269.8712  90.2132 14.98341348 33348,6950.158,96.106,573.936,570.109,0.0
55747.0,STARLINK-5539,PAYLOAD,2023-10-06 10:04:34,14.98355037,0.0002784,69.9997,316.6033,274.1353,85.9488,-0.00039292,-4.781e-05,0.0,0 STARLINK-5539,1 55747U 23028G   23279.41984855 -.00004781  00000-0 -39292-3 0  9990,2 55747  69.9997 316.6033 0002784 274.1353  85.9488 14.98355037 33437,6950.115,96.105,573.915,570.046,0.0
55747.0,STARLINK-5539,PAYLOAD,2023-10-06 13:16:50,14.98354892,0.0002773,69.9996,316.2665,274.5104,85.5738,-0.00036442,-4.441e-05,0.0,0 STARLINK-5539,1 55747U 23028G   23279.55336612 -.00004441  00000-0 -36442-3 0  9994,2 55747  69.9996 316.2665 0002773 274.5104  85.5738 14.98354892 33453,6950.116,96.105,573.908,570.054,0.0
55747.0,STARLINK-5539,PAYLOAD,2023-10-06 19:41:23,14.98330417,0.0002836,69.9994,315.5935,271.0936,88.9898,2.5495e-05,2.11e-06,0.0,0 STARLINK-5539,1 55747U 23028G   23279.82041154  .00000211  00000-0  25495-4 0  9994,2 55747  69.9994 315.5935 0002836 271.0936  88.9898 14.98330417 33493,6950.192,96.107,574.028,570.086,0.0
55747.0,STARLINK-5539,PAYLOAD,2023-10-07 11:42:44,14.98331747,0.000286,69.9994,313.9102,271.8951,88.188,9.0035e-05,9.81e-06,0.0,0 STARLINK-5539,1 55747U 23028G   23280.48800930  .00000981  00000-0  90035-4 0  9999,2 55747  69.9994 313.9102 0002860 271.8951  88.1880 14.98331747 33594,6950.187,96.107,574.04,570.065,0.0
55747.0,STARLINK-5539,PAYLOAD,2023-10-07 19:43:24,14.98328662,0.00026,69.9997,313.0678,273.617,86.4691,-7.512e-06,-1.83e-06,0.0,0 STARLINK-5539,1 55747U 23028G   23280.82181433 -.00000183  00000-0 -75120-5 0  9992,2 55747  69.9997 313.0678 0002600 273.6170  86.4691 14.98328662 33640,6950.197,96.107,573.869,570.255,0.0
55747.0,STARLINK-5539,PAYLOAD,2023-10-08 10:08:34,14.98367234,0.0002992,69.9993,311.5522,255.8448,104.2378,0.00048016,5.646e-05,0.0,0 STARLINK-5539,1 55747U 23028G   23281.42261907  .00005646  00000-0  48016-3 0  9993,2 55747  69.9993 311.5522 0002992 255.8448 104.2378 14.98367234 33730,6950.078,96.105,574.022,569.863,0.0
55747.0,STARLINK-5539,PAYLOAD,2023-10-08 11:44:44,14.9833259,0.0002838,69.9991,311.3838,268.3474,91.7359,8.6136e-05,9.35e-06,0.0,0 STARLINK-5539,1 55747U 23028G   23281.48940970  .00000935  00000-0  86136-4 0  9995,2 55747  69.9991 311.3838 0002838 268.3474  91.7359 14.98332590 33740,6950.185,96.107,574.022,570.077,0.0
55747.0,STARLINK-5539,PAYLOAD,2023-10-08 19:45:25,14.9833179,0.0002756,69.9996,310.5415,271.8508,88.2335,5.6316e-05,5.79e-06,0.0,0 STARLINK-5539,1 55747U 23028G   23281.82321094  .00000579  00000-0  56316-4 0  9994,2 55747  69.9996 310.5415 0002756 271.8508  88.2335 14.98331790 33794,6950.187,96.107,573.968,570.137,0.0
55747.0,STARLINK-5539,PAYLOAD,2023-10-09 11:46:45,14.98336183,0.0002823,69.9991,308.8592,268.2396,91.844,9.219e-05,1.007e-05,0.0,0 STARLINK-5539,1 55747U 23028G   23282.49080606  .00001007  00000-0  92190-4 0  9996,2 55747  69.9991 308.8592 0002823 268.2396  91.8440 14.98336183 33894,6950.174,96.107,574.001,570.077,0.0
55747.0,STARLINK-5539,PAYLOAD,2023-10-10 02:11:58,14.98330255,0.0002922,69.999,307.3439,270.3961,89.6863,8.0812e-05,8.71e-06,0.0,0 STARLINK-5539,1 55747U 23028G   23283.09164918  .00000871  00000-0  80812-4 0  9998,2 55747  69.9990 307.3439 0002922 270.3961  89.6863 14.98330255 33987,6950.192,96.107,574.088,570.026,0.0
55747.0,STARLINK-5539,PAYLOAD,2023-10-10 11:48:46,14.98330523,0.0002875,69.9991,306.3338,270.7591,89.3238,0.00019767,2.266e-05,0.0,0 STARLINK-5539,1 55747U 23028G   23283.49220623  .00002266  00000-0  19767-3 0  9998,2 55747  69.9991 306.3338 0002875 270.7591  89.3238 14.98330523 34044,6950.191,96.107,574.054,570.058,0.0
